INTELSAT 902 (IS-902)   
1 26900U 01039A   26179.59706030 -.00000278  00000+0  00000+0 0  9991
2 26900   6.1449  71.6447 0004206  26.0472 343.8308  1.00270785 90812
INTELSAT 904 (IS-904)   
1 27380U 02007A   26179.51260638 -.00000220  00000+0  00000+0 0  9998
2 27380   6.9472  69.0501 0006497  12.3783 348.2351  1.00272689 51884
DIRECTV 5 (TEMPO 1)     
1 27426U 02023A   26179.62313271 -.00000050  00000+0  00000+0 0  9992
2 27426   4.9060  75.1720 0003562  27.3315 288.4369  1.00271699 88237
INTELSAT 905 (IS-905)   
1 27438U 02027A   26179.63507932  .00000099  00000+0  00000+0 0  9991
2 27438   6.7811  69.6643 0004147  29.0805 269.4050  1.00272709 51474
GALAXY 3C (G-3C)        
1 27445U 02030A   26179.61772756 -.00000145  00000+0  00000+0 0  9992
2 27445   3.7612  77.8325 0001988  26.1636 300.2638  1.00272327 46607
INTELSAT 906 (IS-906)   
1 27513U 02041A   26179.49473337  .00000019  00000+0  00000+0 0  9998
2 27513   5.8304  72.7827 0004161   9.3200  76.7343  1.00272492 87146
GALAXY 13 (HORIZONS-1)  
1 27954U 03044A   26179.59881286  .00000143  00000+0  00000+0 0  9996
2 27954   1.4480  83.7210 0001693   6.4967 252.0264  1.00270480 46685
INTELSAT 10-02          
1 28358U 04022A   26179.37631979  .00000002  00000+0  00000+0 0  9994
2 28358   0.0291 284.0988 0000745 227.6296 259.2227  1.00279320 80662
DIRECTV 8               
1 28659U 05019A   26179.62672270  .00000013  00000+0  00000+0 0  9994
2 28659   0.0257  73.5054 0003331  29.9467 279.8380  1.00271971 77185
GALAXY 28 (G-28)        
1 28702U 05022A   26179.43966150 -.00000192  00000+0  00000+0 0  9998
2 28702   3.3267  78.7961 0002276  19.1163 309.7962  1.00270700 52086
GALAXY 16 (G-16)        
1 29236U 06023A   26179.60646185 -.00000115  00000+0  00000+0 0  9990
2 29236   0.0443 116.4125 0002875 331.6469 307.9578  1.00271989 73083
DIRECTV 9S              
1 29494U 06043A   26179.62047512 -.00000104  00000+0  00000+0 0  9997
2 29494   2.4493  80.7753 0005439  20.1654 297.9440  1.00271910 51496
GALAXY 17 (G-17)        
1 31307U 07016B   26179.60740919 -.00000197  00000+0  00000+0 0  9995
2 31307   2.9999  79.7642 0004616  21.8406 308.7480  1.00270821 69913
INTELSAT 11 (IS-11)     
1 32253U 07044B   26179.60543740  .00000065  00000+0  00000+0 0  9993
2 32253   3.5942  78.5386 0003196  85.1300  46.5832  0.99047629 68562
HORIZONS-2              
1 32388U 07063B   26179.57579440 -.00000244  00000+0  00000+0 0  9995
2 32388   2.6305  80.4945 0004162   8.2739 321.3813  1.00270788 67922
DIRECTV 11              
1 32729U 08013A   26179.49951964 -.00000115  00000+0  00000+0 0  9993
2 32729   0.0107 257.3781 0000460 198.7578 261.1015  1.00274418 45700
GALAXY 18 (G-18)        
1 32951U 08024A   26179.62878031  .00000000  00000+0  00000+0 0  9992
2 32951   0.0283  32.5775 0003249  69.7703 277.7382  1.00270221 45969
GALAXY 19 (G-19)        
1 33376U 08045A   26179.57120104 -.00000127  00000+0  00000+0 0  9993
2 33376   0.0405 260.2886 0002966 207.6534 277.3516  1.00271105 65015
FM-5                    
1 35493U 09034A   26179.57336772 -.00000188  00000+0  00000+0 0  9991
2 35493   0.0319 282.3582 0001124  68.8151  45.7451  1.00270430 46751
INTELSAT 14 (IS-14)     
1 36097U 09064A   26179.61088734 -.00000262  00000+0  00000+0 0  9995
2 36097   0.0126  45.3569 0002704  53.0339 353.2379  1.00271865 60721
INTELSAT 15 (IS-15)     
1 36106U 09067A   26179.10822836 -.00000173  00000+0  00000+0 0  9993
2 36106   0.0168  51.0973 0002622  50.5770 298.6460  1.00271734 41335
DIRECTV 12              
1 36131U 09075A   26179.57588872 -.00000092  00000+0  00000+0 0  9990
2 36131   0.0081  79.0998 0000446  32.9896 269.1771  1.00272905 46669
INTELSAT 16 (IS-16)     
1 36397U 10006A   26179.50402633 -.00000233  00000+0  00000+0 0  9990
2 36397   0.0168  44.3407 0002461  67.3174 270.1912  1.00271819 59766
XM-5                    
1 37185U 10053A   26179.46641815 -.00000012  00000+0  00000+0 0  9995
2 37185   0.0675 269.7433 0002494 282.8518 136.6849  1.00272363 57598
INTELSAT 17 (IS-17)     
1 37238U 10065B   26179.44467766  .00000012  00000+0  00000+0 0  9995
2 37238   0.0172  88.5864 0002406 356.1387  57.8842  1.00262040 53365
INTELSAT 28 (IS-28)     
1 37392U 11016A   26179.39286275 -.00000215  00000+0  00000+0 0  9997
2 37392   1.8344  82.4959 0004042  13.9165 289.7735  1.00271205 53397
INTELSAT 18 (IS-18)     
1 37834U 11056A   26179.59789266  .00000065  00000+0  00000+0 0  9994
2 37834   0.0173 335.0059 0002124 128.1392 208.7924  1.00273691 53928
INTELSAT 22 (IS-22)     
1 38098U 12011A   26179.03439581  .00000000  00000+0  00000+0 0  9999
2 38098   0.0414  59.1672 0001393  74.4662 226.9912  1.00263922  7298
INTELSAT 19 (IS-19)     
1 38356U 12030A   26179.51294488 -.00000045  00000+0  00000+0 0  9995
2 38356   0.0185 352.6170 0003449 110.5627 164.0910  1.00272785 50566
INTELSAT 20 (IS-20)     
1 38740U 12043A   26179.44487719  .00000000  00000+0  00000+0 0  9999
2 38740   0.0432  73.7399 0001959  77.0776 354.3543  1.00250762 50868
INTELSAT 21 (IS-21)     
1 38749U 12045A   26179.36505307 -.00000273  00000+0  00000+0 0  9998
2 38749   0.0289  72.3831 0001878  38.6454 238.8517  1.00271127 50639
